ONEWEB-0647             
1 56079U 23043AK  23321.09032118 -.00000101  00000+0 -30232-3 0  9990
2 56079  87.8991  86.9812 0001551  84.0752 276.0555 13.15545406 32428
ONEWEB-0651             
1 56080U 23043AL  23321.38977846 -.00000329  00000+0 -90687-3 0  9992
2 56080  87.8982  86.8927 0001904  85.9527 274.1821 13.15547779 32462
ONEWEB-0718             
1 56081U 23043AM  23321.08080726 -.00000456  00000+0 -12455-2 0  9999
2 56081  87.8933  86.9527 0002222 115.3425 244.7936 13.15546559 33348
GSLV R/B                
1 56082U 23043AN  23321.30940796  .00036691  00000+0  61759-3 0  9997
2 56082  87.4129  58.5388 0019848 181.3339 178.7873 15.51335598 36420
ONEWEB-0561             
1 56710U 23068A   23320.67239653  .00000129  00000+0  23232-3 0  9995
2 56710  88.2902  97.5074 0001360  69.2789 290.8498 13.34313874 24781
ONEWEB-0668             
1 56711U 23068B   23321.36873401  .00001036  00000+0  13725-3 0  9992
2 56711  86.7228  66.3403 0011973 313.8554  46.1677 14.78819412 27563
ONEWEB-0676             
1 56712U 23068C   23320.36980632 -.00000388  00000+0 -56439-4 0  9998
2 56712  86.7198  66.6666 0012787 320.6014  39.4276 14.78685892 26725
ONEWEB-0677             
1 56713U 23068D   23321.10423904  .00001912  00000+0  37826-2 0  9995
2 56713  88.3244  95.4404 0002330  87.3695 272.7714 13.34777655 25729
